start=new Date('2022-07-13T00:00:00.000Z').valueOf();
sats=[{"MEAN_MOTION_DDOT":"0.0000000000000","REF_FRAME":"TEME","COUNTRY_CODE":"US","MEAN_ANOMALY":"282.8275","PERIOD":"95.592","ARG_OF_PERICENTER":"77.2850","SITE":"AFETR","LAUNCH_DATE":"2021-02-16","CLASSIFICATION_TYPE":"U","SEMIMAJOR_AXIS":"6925.344","TLE_LINE2":"2 47647  53.0555 308.9018 0001215  77.2850 282.8275 15.06401520 78632","MEAN_MOTION_DOT":"0.00002911","ECCENTRICITY":"0.00012150","RA_OF_ASC_NODE":"308.9018","NORAD_CAT_ID":"47647","OBJECT_ID":"2021-012AD","TIME_SYSTEM":"UTC","BSTAR":"0.00021422000000","RCS_SIZE":"LARGE","GP_ID":"207998151","DECAY_DATE":null,"REV_AT_EPOCH":"7863","APOAPSIS":"548.050","INCLINATION":"53.0555","CENTER_NAME":"EARTH","ELEMENT_SET_NO":"999","MEAN_MOTION":"15.06401520","PERIAPSIS":"546.367","EPOCH":"2022-07-12T17:58:07.067424","TLE_LINE1":"1 47647U 21012AD  22193.74869291  .00002911  00000-0  21422-3 0  9994","EPHEMERIS_TYPE":"0","OBJECT_TYPE":"PAYLOAD","MEAN_ELEMENT_THEORY":"SGP4","OBJECT_NAME":"STARLINK-2030","FILE":"3512432"},{"BSTAR":"0.00018210000000","TIME_SYSTEM":"UTC","RCS_SIZE":"MEDIUM","OBJECT_ID":"2021-012AE","NORAD_CAT_ID":"47648","TLE_LINE2":"2 47648  53.0546 289.2392 0001276  71.9326 288.1802 15.06412533 78906","SEMIMAJOR_AXIS":"6925.310","CLASSIFICATION_TYPE":"U","LAUNCH_DATE":"2021-02-16","RA_OF_ASC_NODE":"289.2392","ECCENTRICITY":"0.00012760","MEAN_MOTION_DOT":"0.00002433","REF_FRAME":"TEME","MEAN_MOTION_DDOT":"0.0000000000000","ARG_OF_PERICENTER":"71.9326","SITE":"AFETR","PERIOD":"95.591","MEAN_ANOMALY":"288.1802","COUNTRY_CODE":"US","FILE":"3512432","OBJECT_NAME":"STARLINK-2031","MEAN_ELEMENT_THEORY":"SGP4","MEAN_MOTION":"15.06412533","ELEMENT_SET_NO":"999","TLE_LINE1":"1 47648U 21012AE  22193.67312794  .00002433  00000-0  18210-3 0  9998","OBJECT_TYPE":"PAYLOAD","EPHEMERIS_TYPE":"0","EPOCH":"2022-07-12T16:09:18.254016","PERIAPSIS":"546.291","CENTER_NAME":"EARTH","INCLINATION":"53.0546","GP_ID":"207998401","APOAPSIS":"548.059","REV_AT_EPOCH":"7890","DECAY_DATE":null},{"TLE_LINE2":"2 47649  53.0558 289.2264 0001460  62.2269 297.8867 15.06424518 78906","CLASSIFICATION_TYPE":"U","SEMIMAJOR_AXIS":"6925.273","LAUNCH_DATE":"2021-02-16","RA_OF_ASC_NODE":"289.2264","ECCENTRICITY":"0.00014600","MEAN_MOTION_DOT":"0.00009332","MEAN_MOTION_DDOT":"0.0000000000000","REF_FRAME":"TEME","SITE":"AFETR","ARG_OF_PERICENTER":"62.2269","PERIOD":"95.591","MEAN_ANOMALY":"297.8867","COUNTRY_CODE":"US","BSTAR":"0.00064410000000","TIME_SYSTEM":"UTC","RCS_SIZE":"LARGE","OBJECT_ID":"2021-012AF","NORAD_CAT_ID":"47649","INCLINATION":"53.0558","CENTER_NAME":"EARTH","GP_ID":"207999153","APOAPSIS":"548.150","REV_AT_EPOCH":"7890","DECAY_DATE":null,"OBJECT_NAME":"STARLINK-2032","FILE":"3512432","MEAN_ELEMENT_THEORY":"SGP4","MEAN_MOTION":"15.06424518","ELEMENT_SET_NO":"999","TLE_LINE1":"1 47649U 21012AF  22193.67681792  .00009332  00000-0  64410-3 0  9994","EPHEMERIS_TYPE":"0","OBJECT_TYPE":"PAYLOAD","EPOCH":"2022-07-12T16:14:37.068288","PERIAPSIS":"546.127"},{"MEAN_ELEMENT_THEORY":"SGP4","OBJECT_NAME":"STARLINK-2033","FILE":"3512432","ELEMENT_SET_NO":"999","MEAN_MOTION":"15.06423926","PERIAPSIS":"546.166","EPOCH":"2022-07-12T17:28:54.618816","EPHEMERIS_TYPE":"0","TLE_LINE1":"1 47650U 21012AG  22193.72840994  .00009632  00000-0  66419-3 0  9997","OBJECT_TYPE":"PAYLOAD","INCLINATION":"53.0551","CENTER_NAME":"EARTH","GP_ID":"207999387","DECAY_DATE":null,"REV_AT_EPOCH":"7889","APOAPSIS":"548.115","TIME_SYSTEM":"UTC","BSTAR":"0.00066419000000","RCS_SIZE":"LARGE","NORAD_CAT_ID":"47650","OBJECT_ID":"2021-012AG","LAUNCH_DATE":"2021-02-16","CLASSIFICATION_TYPE":"U","SEMIMAJOR_AXIS":"6925.275","TLE_LINE2":"2 47650  53.0551 288.9937 0001407  68.8454 291.2685 15.06423926 78899","MEAN_MOTION_DOT":"0.00009632","ECCENTRICITY":"0.00014070","RA_OF_ASC_NODE":"288.9937","MEAN_MOTION_DDOT":"0.0000000000000","REF_FRAME":"TEME","COUNTRY_CODE":"US","MEAN_ANOMALY":"291.2685","PERIOD":"95.591","ARG_OF_PERICENTER":"68.8454","SITE":"AFETR"},{"RCS_SIZE":"LARGE","BSTAR":"0.00014297000000","TIME_SYSTEM":"UTC","OBJECT_ID":"2021-012AH","NORAD_CAT_ID":"47651","RA_OF_ASC_NODE":"309.4591","ECCENTRICITY":"0.00014420","MEAN_MOTION_DOT":"0.00001849","TLE_LINE2":"2 47651  53.0562 309.4591 0001442  78.5377 281.5773 15.06414701 78619","SEMIMAJOR_AXIS":"6925.304","CLASSIFICATION_TYPE":"U","LAUNCH_DATE":"2021-02-16","SITE":"AFETR","ARG_OF_PERICENTER":"78.5377","PERIOD":"95.591","MEAN_ANOMALY":"281.5773","COUNTRY_CODE":"US","MEAN_MOTION_DDOT":"0.0000000000000","REF_FRAME":"TEME","FILE":"3512432","OBJECT_NAME":"STARLINK-2035","MEAN_ELEMENT_THEORY":"SGP4","TLE_LINE1":"1 47651U 21012AH  22193.63442472  .00001849  00000-0  14297-3 0  9996","OBJECT_TYPE":"PAYLOAD","EPHEMERIS_TYPE":"0","EPOCH":"2022-07-12T15:13:34.295808","PERIAPSIS":"546.170","MEAN_MOTION":"15.06414701","ELEMENT_SET_NO":"999","INCLINATION":"53.0562","CENTER_NAME":"EARTH","APOAPSIS":"548.167","REV_AT_EPOCH":"7861","DECAY_DATE":null,"GP_ID":"207997653"},{"GP_ID":"207997903","DECAY_DATE":null,"REV_AT_EPOCH":"7863","APOAPSIS":"548.132","INCLINATION":"53.0541","CENTER_NAME":"EARTH","ELEMENT_SET_NO":"999","MEAN_MOTION":"15.06427855","PERIAPSIS":"546.125","EPOCH":"2022-07-12T18:56:29.906592","TLE_LINE1":"1 47652U 21012AJ  22193.78923503  .00010376  00000-0  71392-3 0  9996","OBJECT_TYPE":"PAYLOAD","EPHEMERIS_TYPE":"0","MEAN_ELEMENT_THEORY":"SGP4","FILE":"3512432","OBJECT_NAME":"STARLINK-2036","MEAN_MOTION_DDOT":"0.0000000000000","REF_FRAME":"TEME","COUNTRY_CODE":"US","MEAN_ANOMALY":"286.8815","PERIOD":"95.590","ARG_OF_PERICENTER":"73.2332","SITE":"AFETR","LAUNCH_DATE":"2021-02-16","SEMIMAJOR_AXIS":"6925.263","CLASSIFICATION_TYPE":"U","TLE_LINE2":"2 47652  53.0541 308.7123 0001449  73.2332 286.8815 15.06427855 78631","MEAN_MOTION_DOT":"0.00010376","ECCENTRICITY":"0.00014490","RA_OF_ASC_NODE":"308.7123","NORAD_CAT_ID":"47652","OBJECT_ID":"2021-012AJ","TIME_SYSTEM":"UTC","BSTAR":"0.00071392000000","RCS_SIZE":"LARGE"},{"RCS_SIZE":"LARGE","BSTAR":"0.00044067000000","TIME_SYSTEM":"UTC","OBJECT_ID":"2021-012AK","NORAD_CAT_ID":"47653","RA_OF_ASC_NODE":"288.7295","ECCENTRICITY":"0.00014140","MEAN_MOTION_DOT":"0.00006291","TLE_LINE2":"2 47653  53.0559 288.7295 0001414  56.5143 303.5981 15.06412776 78901","SEMIMAJOR_AXIS":"6925.309","CLASSIFICATION_TYPE":"U","LAUNCH_DATE":"2021-02-16","ARG_OF_PERICENTER":"56.5143","SITE":"AFETR","PERIOD":"95.591","MEAN_ANOMALY":"303.5981","COUNTRY_CODE":"US","MEAN_MOTION_DDOT":"0.0000000000000","REF_FRAME":"TEME","OBJECT_NAME":"STARLINK-2037","FILE":"3512432","MEAN_ELEMENT_THEORY":"SGP4","EPHEMERIS_TYPE":"0","TLE_LINE1":"1 47653U 21012AK  22193.78370002  .00006291  00000-0  44067-3 0  9997","OBJECT_TYPE":"PAYLOAD","EPOCH":"2022-07-12T18:48:31.681728","PERIAPSIS":"546.195","MEAN_MOTION":"15.06412776","ELEMENT_SET_NO":"999","INCLINATION":"53.0559","CENTER_NAME":"EARTH","APOAPSIS":"548.154","REV_AT_EPOCH":"7890","DECAY_DATE":null,"GP_ID":"207998654"},{"GP_ID":"207998888","REV_AT_EPOCH":"7863","DECAY_DATE":null,"APOAPSIS":"548.199","INCLINATION":"53.0561","CENTER_NAME":"EARTH","ELEMENT_SET_NO":"999","MEAN_MOTION":"15.06420544","PERIAPSIS":"546.102","OBJECT_TYPE":"PAYLOAD","TLE_LINE1":"1 47654U 21012AL  22193.79291769  .00006067  00000-0  42563-3 0  9991","EPHEMERIS_TYPE":"0","EPOCH":"2022-07-12T19:01:48.088416","OBJECT_NAME":"STARLINK-2038","FILE":"3512432","MEAN_ELEMENT_THEORY":"SGP4","MEAN_MOTION_DDOT":"0.0000000000000","REF_FRAME":"TEME","MEAN_ANOMALY":"289.1682","COUNTRY_CODE":"US","SITE":"AFETR","ARG_OF_PERICENTER":"70.9471","PERIOD":"95.591","LAUNCH_DATE":"2021-02-16","TLE_LINE2":"2 47654  53.0561 308.7001 0001514  70.9471 289.1682 15.06420544 78637","CLASSIFICATION_TYPE":"U","SEMIMAJOR_AXIS":"6925.286","ECCENTRICITY":"0.00015140","MEAN_MOTION_DOT":"0.00006067","RA_OF_ASC_NODE":"308.7001","OBJECT_ID":"2021-012AL","NORAD_CAT_ID":"47654","TIME_SYSTEM":"UTC","BSTAR":"0.00042563000000","RCS_SIZE":"LARGE"},{"CLASSIFICATION_TYPE":"U","SEMIMAJOR_AXIS":"6925.260","TLE_LINE2":"2 47655  53.0542 308.7362 0001543  72.8925 287.2233 15.06428856 78639","LAUNCH_DATE":"2021-02-16","RA_OF_ASC_NODE":"308.7362","MEAN_MOTION_DOT":"0.00010045","ECCENTRICITY":"0.00015430","MEAN_MOTION_DDOT":"0.0000000000000","REF_FRAME":"TEME","PERIOD":"95.590","ARG_OF_PERICENTER":"72.8925","SITE":"AFETR","COUNTRY_CODE":"US","MEAN_ANOMALY":"287.2233","BSTAR":"0.00069178000000","TIME_SYSTEM":"UTC","RCS_SIZE":"LARGE","NORAD_CAT_ID":"47655","OBJECT_ID":"2021-012AM","CENTER_NAME":"EARTH","INCLINATION":"53.0542","GP_ID":"207998152","APOAPSIS":"548.194","DECAY_DATE":null,"REV_AT_EPOCH":"7863","MEAN_ELEMENT_THEORY":"SGP4","OBJECT_NAME":"STARLINK-2039","FILE":"3512432","MEAN_MOTION":"15.06428856","ELEMENT_SET_NO":"999","EPOCH":"2022-07-12T18:51:11.206368","EPHEMERIS_TYPE":"0","TLE_LINE1":"1 47655U 21012AM  22193.78554637  .00010045  00000-0  69178-3 0  9999","OBJECT_TYPE":"PAYLOAD","PERIAPSIS":"546.057"},{"TLE_LINE2":"2 47656  53.0542 289.2570 0001449  63.5055 296.6082 15.06412069 78893","CLASSIFICATION_TYPE":"U","SEMIMAJOR_AXIS":"6925.312","LAUNCH_DATE":"2021-02-16","RA_OF_ASC_NODE":"289.2570","ECCENTRICITY":"0.00014490","MEAN_MOTION_DOT":"0.00003907","REF_FRAME":"TEME","MEAN_MOTION_DDOT":"0.0000000000000","ARG_OF_PERICENTER":"63.5055","SITE":"AFETR","PERIOD":"95.591","MEAN_ANOMALY":"296.6082","COUNTRY_CODE":"US","BSTAR":"0.00028097000000","TIME_SYSTEM":"UTC","RCS_SIZE":"LARGE","OBJECT_ID":"2021-012AN","NORAD_CAT_ID":"47656","INCLINATION":"53.0542","CENTER_NAME":"EARTH","GP_ID":"207998402","APOAPSIS":"548.180","REV_AT_EPOCH":"7889","DECAY_DATE":null,"FILE":"3512432","OBJECT_NAME":"STARLINK-2040","MEAN_ELEMENT_THEORY":"SGP4","MEAN_MOTION":"15.06412069","ELEMENT_SET_NO":"999","TLE_LINE1":"1 47656U 21012AN  22193.66943283  .00003907  00000-0  28097-3 0  9990","OBJECT_TYPE":"PAYLOAD","EPHEMERIS_TYPE":"0","EPOCH":"2022-07-12T16:03:58.996512","PERIAPSIS":"546.173"}];
